NORAD_CAT_ID,OBJECT_NAME,OBJECT_TYPE,EPOCH,MEAN_MOTION,ECCENTRICITY,INCLINATION,RA_OF_ASC_NODE,ARG_OF_PERICENTER,MEAN_ANOMALY,BSTAR,MEAN_MOTION_DOT,MEAN_MOTION_DDOT,TLE_LINE0,TLE_LINE1,TLE_LINE2,SEMIMAJOR_AXIS,PERIOD,APOGEE,PERIGEE,DECAYED
54797.0,STARLINK-5435,PAYLOAD,2023-11-10 13:56:28,15.08857355,0.0001445,53.2159,260.2498,93.5494,266.5663,0.00089251,0.00013952,0.0,0 STARLINK-5435,1 54797U 22175AR  23314.58088513  .00013952  00000-0  89251-3 0  9998,2 54797  53.2159 260.2498 0001445  93.5494 266.5663 15.08857355 51588,6917.827,95.436,540.692,538.693,0.0
54797.0,STARLINK-5435,PAYLOAD,2023-11-11 02:39:33,15.08830122,0.0001289,53.2165,257.8692,87.6044,272.5096,-0.00011934,-2.186e-05,0.0,0 STARLINK-5435,1 54797U 22175AR  23315.11080361 -.00002186  00000-0 -11934-3 0  9993,2 54797  53.2165 257.8692 0001289  87.6044 272.5096 15.08830122 49503,6917.911,95.438,540.667,538.884,0.0
54797.0,STARLINK-5435,PAYLOAD,2023-11-11 13:47:15,15.08830817,0.0001397,53.2172,255.7883,80.8543,279.2607,-0.0001507,-2.685e-05,0.0,0 STARLINK-5435,1 54797U 22175AR  23315.57448858 -.00002685  00000-0 -15070-3 0  9991,2 54797  53.2172 255.7883 0001397  80.8543 279.2607 15.08830817 51730,6917.908,95.438,540.74,538.807,0.0
54797.0,STARLINK-5435,PAYLOAD,2023-11-12 02:30:20,15.08839554,0.0001156,53.2162,253.4097,77.2785,282.8336,0.00030323,4.541e-05,0.0,0 STARLINK-5435,1 54797U 22175AR  23316.10440858  .00004541  00000-0  30323-3 0  9992,2 54797  53.2162 253.4097 0001156  77.2785 282.8336 15.08839554 49656,6917.882,95.438,540.546,538.947,0.0
54797.0,STARLINK-5435,PAYLOAD,2023-11-12 19:59:35,15.08847906,0.0001403,53.2176,250.1377,84.4562,275.659,0.0006456,0.00010004,0.0,0 STARLINK-5435,1 54797U 22175AR  23316.83305119  .00010004  00000-0  64560-3 0  9993,2 54797  53.2176 250.1377 0001403  84.4562 275.6590 15.08847906 51929,6917.856,95.437,540.692,538.751,0.0
54797.0,STARLINK-5435,PAYLOAD,2023-11-13 05:31:54,15.08861984,0.0001447,53.2172,248.3538,78.0327,282.0827,0.00091412,0.00014299,0.0,0 STARLINK-5435,1 54797U 22175AR  23317.23048705  .00014299  00000-0  91412-3 0  9999,2 54797  53.2172 248.3538 0001447  78.0327 282.0827 15.08861984 49822,6917.813,95.436,540.679,538.677,0.0
54797.0,STARLINK-5435,PAYLOAD,2023-11-13 19:50:22,15.08845221,0.0001597,53.2177,245.6713,95.9437,264.1737,0.00020569,2.988e-05,0.0,0 STARLINK-5435,1 54797U 22175AR  23317.82664961  .00002988  00000-0  20569-3 0  9999,2 54797  53.2177 245.6713 0001597  95.9437 264.1737 15.08845221 52076,6917.864,95.437,540.834,538.625,0.0
54797.0,STARLINK-5435,PAYLOAD,2023-11-14 02:11:55,15.08843324,0.0001375,53.217,244.4887,81.8655,278.2493,0.00016642,2.362e-05,0.0,0 STARLINK-5435,1 54797U 22175AR  23318.09160980  .00002362  00000-0  16642-3 0  9994,2 54797  53.2170 244.4887 0001375  81.8655 278.2493 15.08843324 49958,6917.87,95.437,540.686,538.784,0.0
54797.0,STARLINK-5435,PAYLOAD,2023-11-14 11:44:14,15.0884141,0.000143,53.2171,242.7033,84.8587,275.2568,0.00013675,1.889e-05,0.0,0 STARLINK-5435,1 54797U 22175AR  23318.48905139  .00001889  00000-0  13675-3 0  9996,2 54797  53.2171 242.7033 0001430  84.8587 275.2568 15.08841410 52174,6917.876,95.437,540.73,538.752,0.0
54797.0,STARLINK-5435,PAYLOAD,2023-11-14 21:16:32,15.08841831,0.0001477,53.2173,240.9195,86.6912,273.4249,0.00016498,2.339e-05,0.0,0 STARLINK-5435,1 54797U 22175AR  23318.88649187  .00002339  00000-0  16498-3 0  9995,2 54797  53.2173 240.9195 0001477  86.6912 273.4249 15.08841831 52238,6917.875,95.437,540.762,538.718,0.0
54797.0,STARLINK-5435,PAYLOAD,2023-11-15 05:13:28,15.08849454,0.0001382,53.2167,239.4325,84.7044,275.4105,0.00031228,4.687e-05,0.0,0 STARLINK-5435,1 54797U 22175AR  23319.21768808  .00004687  00000-0  31228-3 0  9991,2 54797  53.2167 239.4325 0001382  84.7044 275.4105 15.08849454 50127,6917.851,95.437,540.673,538.76,0.0
54797.0,STARLINK-5435,PAYLOAD,2023-11-15 19:31:56,15.08839093,0.0001448,53.218,236.7514,101.3335,258.7819,0.00012814,1.752e-05,0.0,0 STARLINK-5435,1 54797U 22175AR  23319.81385189  .00001752  00000-0  12814-3 0  9994,2 54797  53.2180 236.7514 0001448 101.3335 258.7819 15.08839093 50218,6917.883,95.438,540.75,538.746,0.0
54797.0,STARLINK-5435,PAYLOAD,2023-11-15 21:07:19,15.08837676,0.0001375,53.2189,236.4547,97.2712,262.8436,5.3554e-05,5.64e-06,0.0,0 STARLINK-5435,1 54797U 22175AR  23319.88009230  .00000564  00000-0  53554-4 0  9998,2 54797  53.2189 236.4547 0001375  97.2712 262.8436 15.08837676 52387,6917.887,95.438,540.704,538.801,0.0
54797.0,STARLINK-5435,PAYLOAD,2023-11-16 03:28:52,15.0884531,0.0001477,53.2167,235.27,95.416,264.7,0.0001961,2.835e-05,0.0,0 STARLINK-5435,1 54797U 22175AR  23320.14505089  .00002835  00000-0  19610-3 0  9999,2 54797  53.2167 235.2700 0001477  95.4160 264.7000 15.08845310 52428,6917.864,95.437,540.751,538.707,0.0
54797.0,STARLINK-5435,PAYLOAD,2023-11-17 03:19:39,15.08840154,0.0001476,53.2152,230.8119,112.8547,247.2601,8.6092e-05,1.082e-05,0.0,0 STARLINK-5435,1 54797U 22175AR  23321.13865331  .00001082  00000-0  86092-4 0  9990,2 54797  53.2152 230.8119 0001476 112.8547 247.2601 15.08840154 50410,6917.88,95.438,540.766,538.724,0.0
54797.0,STARLINK-5435,PAYLOAD,2023-11-17 22:24:17,15.08834528,0.0001499,53.215,227.2436,109.9941,250.1213,-5.0174e-05,-1.086e-05,0.0,0 STARLINK-5435,1 54797U 22175AR  23321.93353883 -.00001086  00000-0 -50174-4 0  9990,2 54797  53.2150 227.2436 0001499 109.9941 250.1213 15.08834528 52692,6917.897,95.438,540.799,538.725,0.0
54797.0,STARLINK-5435,PAYLOAD,2023-11-18 03:10:27,15.08838487,0.0001531,53.2163,226.3507,94.4363,265.6804,0.00011365,1.521e-05,0.0,0 STARLINK-5435,1 54797U 22175AR  23322.13225992  .00001521  00000-0  11365-3 0  9992,2 54797  53.2163 226.3507 0001531  94.4363 265.6804 15.08838487 50567,6917.885,95.438,540.809,538.691,0.0
54797.0,STARLINK-5435,PAYLOAD,2023-11-18 11:07:22,15.08843043,0.0001565,53.2164,224.864,94.9234,265.1936,8.3991e-05,1.049e-05,0.0,0 STARLINK-5435,1 54797U 22175AR  23322.46345836  .00001049  00000-0  83991-4 0  9998,2 54797  53.2164 224.8640 0001565  94.9234 265.1936 15.08843043 52778,6917.871,95.437,540.819,538.653,0.0
54797.0,STARLINK-5435,PAYLOAD,2023-11-19 10:58:10,15.08841212,0.0002003,53.2182,220.4021,97.3693,262.7526,0.00016442,2.33e-05,0.0,0 STARLINK-5435,1 54797U 22175AR  23323.45706022  .00002330  00000-0  16442-3 0  9996,2 54797  53.2182 220.4021 0002003  97.3693 262.7526 15.08841212 50768,6917.877,95.437,541.127,538.356,0.0
54797.0,STARLINK-5435,PAYLOAD,2023-11-19 22:05:51,15.0884276,0.0001509,53.216,218.3218,90.2077,269.9088,7.7823e-05,9.51e-06,0.0,0 STARLINK-5435,1 54797U 22175AR  23323.92073766  .00000951  00000-0  77823-4 0  9998,2 54797  53.2160 218.3218 0001509  90.2077 269.9088 15.08842760 52994,6917.872,95.437,540.781,538.693,0.0
54797.0,STARLINK-5435,PAYLOAD,2023-11-20 02:52:00,15.0884589,0.0001503,53.216,217.4296,88.8414,271.2751,0.00012402,1.687e-05,0.0,0 STARLINK-5435,1 54797U 22175AR  23324.11945599  .00001687  00000-0  12402-3 0  9990,2 54797  53.2160 217.4296 0001503  88.8414 271.2751 15.08845890 53027,6917.862,95.437,540.767,538.688,0.0
54797.0,STARLINK-5435,PAYLOAD,2023-11-20 21:56:38,15.08849312,0.0001569,53.2162,213.8606,91.1296,268.9876,0.00010747,1.423e-05,0.0,0 STARLINK-5435,1 54797U 22175AR  23324.91433249  .00001423  00000-0  10747-3 0  9990,2 54797  53.2162 213.8606 0001569  91.1296 268.9876 15.08849312 53148,6917.852,95.437,540.802,538.632,0.0
54797.0,STARLINK-5435,PAYLOAD,2023-11-21 02:42:47,15.08852147,0.0001592,53.2162,212.9678,91.3005,268.8169,0.00015105,2.118e-05,0.0,0 STARLINK-5435,1 54797U 22175AR  23325.11305051  .00002118  00000-0  15105-3 0  9997,2 54797  53.2162 212.9678 0001592  91.3005 268.8169 15.08852147 51011,6917.843,95.437,540.81,538.607,0.0
54797.0,STARLINK-5435,PAYLOAD,2023-11-21 20:12:02,15.08842702,0.0001577,53.2161,209.697,103.1212,256.9956,0.00015516,2.182e-05,0.0,0 STARLINK-5435,1 54797U 22175AR  23325.84169622  .00002182  00000-0  15516-3 0  9996,2 54797  53.2161 209.6970 0001577 103.1212 256.9956 15.08842702 53282,6917.872,95.437,540.828,538.646,0.0
54797.0,STARLINK-5435,PAYLOAD,2023-11-22 02:33:35,15.08838859,0.0001715,53.2159,208.5037,106.5835,253.5346,6.1455e-05,6.9e-06,0.0,0 STARLINK-5435,1 54797U 22175AR  23326.10665603  .00000690  00000-0  61455-4 0  9992,2 54797  53.2159 208.5037 0001715 106.5835 253.5346 15.08838859 51162,6917.884,95.438,540.935,538.562,0.0
54797.0,STARLINK-5435,PAYLOAD,2023-11-22 21:38:12,15.08851427,0.0001432,53.2159,204.9357,90.6301,269.4856,0.00022745,3.335e-05,0.0,0 STARLINK-5435,1 54797U 22175AR  23326.90153196  .00003335  00000-0  22745-3 0  9996,2 54797  53.2159 204.9357 0001432  90.6301 269.4856 15.08851427 53445,6917.845,95.437,540.701,538.72,0.0
54797.0,STARLINK-5435,PAYLOAD,2023-11-23 02:24:21,15.08852993,0.0001465,53.2164,204.0439,91.5631,268.5529,0.00034075,5.141e-05,0.0,0 STARLINK-5435,1 54797U 22175AR  23327.10025121  .00005141  00000-0  34075-3 0  9991,2 54797  53.2164 204.0439 0001465  91.5631 268.5529 15.08852993 51315,6917.841,95.437,540.719,538.692,0.0
54797.0,STARLINK-5435,PAYLOAD,2023-11-23 19:53:36,15.0883341,0.000249,53.2156,200.7686,133.2912,226.8288,-2.259e-05,-6.48e-06,0.0,0 STARLINK-5435,1 54797U 22175AR  23327.82889934 -.00000648  00000-0 -22590-4 0  9999,2 54797  53.2156 200.7686 0002490 133.2912 226.8288 15.08833410 51422,6917.901,95.438,541.488,538.043,0.0
54797.0,STARLINK-5435,PAYLOAD,2023-11-23 21:29:00,15.08830966,0.0002075,53.2161,200.4707,132.5782,227.5385,-5.5925e-05,-1.178e-05,0.0,0 STARLINK-5435,1 54797U 22175AR  23327.89514017 -.00001178  00000-0 -55925-4 0  9990,2 54797  53.2161 200.4707 0002075 132.5782 227.5385 15.08830966 53594,6917.908,95.438,541.208,538.338,0.0
54797.0,STARLINK-5435,PAYLOAD,2023-11-24 02:15:09,15.08830849,0.0001464,53.2162,199.5862,105.4975,254.6179,-1.013e-05,-4.49e-06,0.0,0 STARLINK-5435,1 54797U 22175AR  23328.09386346 -.00000449  00000-0 -10130-4 0  9994,2 54797  53.2162 199.5862 0001464 105.4975 254.6179 15.08830849 53625,6917.908,95.438,540.786,538.761,0.0
